[{"id":"26900","name":"INTELSAT 902 (IS-902)","tle1":"1 26900U 01039A   26176.20669668 -.00000279  00000+0  00000+0 0  9992","tle2":"2 26900   6.1365  71.6858 0004219  22.6039 203.3662  1.00272016 90777"},{"id":"27380","name":"INTELSAT 904 (IS-904)","tle1":"1 27380U 02007A   26176.19917274 -.00000222  00000+0  00000+0 0  9996","tle2":"2 27380   6.9401  69.0905 0006533   9.6551 234.8017  1.00273402 51846"},{"id":"27426","name":"DIRECTV 5 (TEMPO 1)","tle1":"1 27426U 02023A   26176.14672824 -.00000052  00000+0  00000+0 0  9990","tle2":"2 27426   4.8983  75.2153 0003506  22.9203 117.8738  1.00272949 88207"},{"id":"27438","name":"INTELSAT 905 (IS-905)","tle1":"1 27438U 02027A   26176.24109623  .00000097  00000+0  00000+0 0  9998","tle2":"2 27438   6.7737  69.7052 0004182  26.9715 126.2983  1.00273854 51445"},{"id":"27445","name":"GALAXY 3C (G-3C)","tle1":"1 27445U 02030A   26176.03978844 -.00000146  00000+0  00000+0 0  9992","tle2":"2 27445   3.7528  77.8806 0001934  27.0363  87.7469  1.00272136 46578"},{"id":"27513","name":"INTELSAT 906 (IS-906)","tle1":"1 27513U 02041A   26176.18122740  .00000017  00000+0  00000+0 0  9998","tle2":"2 27513   5.8222  72.8229 0004258   5.8574 324.0267  1.00271821 87109"},{"id":"27954","name":"GALAXY 13 (HORIZONS-1)","tle1":"1 27954U 03044A   26175.75600534  .00000140  00000+0  00000+0 0  9992","tle2":"2 27954   1.4381  83.7671 0002095   5.1096 306.2057  1.00274417 46644"},{"id":"28358","name":"INTELSAT 10-02","tle1":"1 28358U 04022A   26175.02761910 -.00000004  00000+0  00000+0 0  9994","tle2":"2 28358   0.0222 290.2426 0000317 232.3282 118.5529  1.00269986 80620"},{"id":"28659","name":"DIRECTV 8","tle1":"1 28659U 05019A   26176.02891877  .00000010  00000+0  00000+0 0  9998","tle2":"2 28659   0.0162  61.7276 0003256  38.2934  64.5184  1.00273164 77157"},{"id":"28702","name":"GALAXY 28 (G-28)","tle1":"1 28702U 05022A   26176.24627916 -.00000193  00000+0  00000+0 0  9999","tle2":"2 28702   3.3186  78.8342 0002308  13.1002 243.0196  1.00271440 52050"},{"id":"29236","name":"GALAXY 16 (G-16)","tle1":"1 29236U 06023A   26176.14889492 -.00000117  00000+0  00000+0 0  9998","tle2":"2 29236   0.0420 138.4961 0002861 302.2598 147.1245  1.00272158 73053"},{"id":"29494","name":"DIRECTV 9S","tle1":"1 29494U 06043A   26176.14846159 -.00000106  00000+0  00000+0 0  9997","tle2":"2 29494   2.4416  80.8160 0005354  17.3958 127.3223  1.00271747 51465"},{"id":"31307","name":"GALAXY 17 (G-17)","tle1":"1 31307U 07016B   26176.15166826 -.00000199  00000+0  00000+0 0  9993","tle2":"2 31307   2.9923  79.8060 0004534  15.7957 147.2863  1.00271763 69880"},{"id":"32253","name":"INTELSAT 11 (IS-11)","tle1":"1 32253U 07044B   26176.15962497 -.00000013  00000+0  00000+0 0  9998","tle2":"2 32253   3.5864  78.5794 0002922  84.1600 258.8083  0.99048006 68528"},{"id":"32388","name":"HORIZONS-2","tle1":"1 32388U 07063B   26176.15392160 -.00000246  00000+0  00000+0 0  9990","tle2":"2 32388   2.6228  80.5350 0004130   4.6739 169.6993  1.00271807 67893"},{"id":"32729","name":"DIRECTV 11","tle1":"1 32729U 08013A   26174.93690975 -.00000119  00000+0  00000+0 0  9993","tle2":"2 32729   0.0386 177.2592 0000161 263.8545  69.0887  1.00272226 45667"},{"id":"32951","name":"GALAXY 18 (G-18)","tle1":"1 32951U 08024A   26175.71643956  .00000033  00000+0  00000+0 0  9990","tle2":"2 32951   0.0172 343.4433 0003167 115.8999 308.4520  1.00274091 45921"},{"id":"33376","name":"GALAXY 19 (G-19)","tle1":"1 33376U 08045A   26176.14932825 -.00000130  00000+0  00000+0 0  9998","tle2":"2 33376   0.0450 260.6023 0002872 202.5982 126.8539  1.00272232 64989"},{"id":"35493","name":"FM-5","tle1":"1 35493U 09034A   26176.29406950 -.00000190  00000+0  00000+0 0  9996","tle2":"2 35493   0.0207 293.6320 0000740  45.8506 313.6490  1.00270349 46720"},{"id":"36097","name":"INTELSAT 14 (IS-14)","tle1":"1 36097U 09064A   26176.20669668 -.00000264  00000+0  00000+0 0  9990","tle2":"2 36097   0.0181   7.8524 0002657  88.1603 206.7399  1.00270381 60687"},{"id":"36106","name":"INTELSAT 15 (IS-15)","tle1":"1 36106U 09067A   26176.13725274 -.00000176  00000+0  00000+0 0  9994","tle2":"2 36106   0.0154  23.2834 0002470  73.8069 310.7515  1.00271776 41307"},{"id":"36131","name":"DIRECTV 12","tle1":"1 36131U 09075A   26175.50651080 -.00000095  00000+0  00000+0 0  9994","tle2":"2 36131   0.0405 155.2919 0000266 331.6460 225.3387  1.00271875 46623"},{"id":"36397","name":"INTELSAT 16 (IS-16)","tle1":"1 36397U 10006A   26176.15340160 -.00000235  00000+0  00000+0 0  9996","tle2":"2 36397   0.0100  20.8909 0002375  88.4314 142.9912  1.00271146 59738"},{"id":"37185","name":"XM-5","tle1":"1 37185U 10053A   26176.28831848 -.00000013  00000+0  00000+0 0  9990","tle2":"2 37185   0.0622 272.2118 0002675 281.8919  67.9187  1.00270987 57562"},{"id":"37238","name":"INTELSAT 17 (IS-17)","tle1":"1 37238U 10065B   26176.06711404  .00000008  00000+0  00000+0 0  9996","tle2":"2 37238   0.0401 151.1999 0002647 302.0290 270.1313  1.00270411 53326"},{"id":"37392","name":"INTELSAT 28 (IS-28)","tle1":"1 37392U 11016A   26176.24898653 -.00000217  00000+0  00000+0 0  9999","tle2":"2 37392   1.8273  82.5340 0003975  12.0608 236.6966  1.00270611 53363"},{"id":"37834","name":"INTELSAT 18 (IS-18)","tle1":"1 37834U 11056A   26176.26899813  .00000063  00000+0  00000+0 0  9993","tle2":"2 37834   0.0188 290.9297 0002030 166.1669  93.1403  1.00272607 53892"},{"id":"38098","name":"INTELSAT 22 (IS-22)","tle1":"1 38098U 12011A   26176.06711404  .00000000  00000+0  00000+0 0  9996","tle2":"2 38098   0.0333  49.1082 0001976  86.4675 233.9022  1.00270636  7263"},{"id":"38356","name":"INTELSAT 19 (IS-19)","tle1":"1 38356U 12030A   26175.81850399 -.00000047  00000+0  00000+0 0  9995","tle2":"2 38356   0.0179   1.9960 0003321  99.4834 272.1565  1.00273280 50528"},{"id":"38740","name":"INTELSAT 20 (IS-20)","tle1":"1 38740U 12043A   26175.87197582  .00000000  00000+0  00000+0 0  9998","tle2":"2 38740   0.0375  69.0879 0002337 110.0778 116.2550  1.00271269 50820"},{"id":"38749","name":"INTELSAT 21 (IS-21)","tle1":"1 38749U 12045A   26176.15704728 -.00000275  00000+0  00000+0 0  9992","tle2":"2 38749   0.0211  65.5976 0001770  42.2671 163.9705  1.00270968 50607"}]